#cP2015  3 19  0  0  0.00000000      96 ORBIT IGb08 HLM  IGS
## 1836 345600.00000000   900.00000000 57100 0.0000000000000
+   31   G01G02G03G04G05G06G07G08G09G10G11G12G13G14G15G16G17
+        G18G19G20G21G22G23G24G25G27G28G29G30G31G32  0  0  0
+          0  0  0  0  0  0  0  0  0  0  0  0  0  0  0  0  0
+          0  0  0  0  0  0  0  0  0  0  0  0  0  0  0  0  0
+          0  0  0  0  0  0  0  0  0  0  0  0  0  0  0  0  0
++         2  2  3  2  2  2  2  3  2  3  2  3  2  3  2  3  2
++         2  2  2  2  2  2  2  3  2  2  3  2  3  3  0  0  0
++         0  0  0  0  0  0  0  0  0  0  0  0  0  0  0  0  0
++         0  0  0  0  0  0  0  0  0  0  0  0  0  0  0  0  0
++         0  0  0  0  0  0  0  0  0  0  0  0  0  0  0  0  0
%c G  cc GPS ccc cccc cccc cccc cccc ccccc ccccc ccccc ccccc
%c cc cc ccc ccc cccc cccc cccc cccc ccccc ccccc ccccc ccccc
%f  1.2500000  1.025000000  0.00000000000  0.000000000000000
%f  0.0000000  0.000000000  0.00000000000  0.000000000000000
%i    0    0    0    0      0      0      0      0         0
%i    0    0    0    0      0      0      0      0         0
/* RAPID ORBIT COMBINATION FROM WEIGHTED AVERAGE OF:        
/* cod emr esa gfz jpl ngs sio usn whu                      
/* REFERENCED TO IGS TIME (IGST) AND TO WEIGHTED MEAN POLE: 
/* PCV:IGS08_1835 OL/AL:FES2004  NONE     Y  ORB:CMB CLK:CMB
*  2015  3 19 23 15  0.00000000
PG01   6393.652990 -18677.588146 -17731.923519     -7.771376 10  5  7 123       
PG02 -21817.979362  14678.492698   -299.961750    554.579160 10  6  9  96       
PG03  -3859.533717 -17448.900609 -19627.505338    262.426128 11  9 10 146       
PG04  14788.053451 -19249.621969 -10781.077242     -9.357044  8  8  5 117       
PG05 -16025.735933   7768.821013  19707.198116   -264.728018  8  2  8 135       
PG06 -22507.812710   3118.734879 -13743.954144    113.058734  9  8  7 120       
PG07  -7667.044233 -12939.256806  21987.111531    448.980138  6  7  5  96       
PG08  24080.683351 -10210.096837  -1565.992447     18.677950 11  6  8  74       
PG09  -7831.904478 -23564.029207   9395.706455   -117.108142  8  6  6 110       
PG10 -24700.584958  -8665.801836   5290.197217   -167.806040 10  8 10 151       
PG11   7837.439912 -23409.805488 -10142.526990   -565.472278 11  8  7 129       
PG12    474.889673  16270.237914 -21126.626822    277.963474  8  6  9 122       
PG13 -12487.488845  16198.380371  16860.483365    -98.120701  8  5  4 142       
PG14  14267.446927   7294.423467 -20972.926319     77.381476 12  6  8  51       
PG15  -4102.222782  24584.876965   8613.881802   -238.643195  7  5  6 133       
PG16  16290.084512  -5712.497244  20233.153423   -146.584706  9  8  4 143       
PG17 -13876.362280  -9637.896887 -20255.600206   -161.915927 11  8  9 104       
PG18  20279.339983  16045.766191   7216.480437    387.569747  9  7  4 122       
PG19   8749.694761 -22077.986843  11222.255308   -504.494789  8  5  7 129       
PG20 -25176.154619  -5388.193423   6625.780173    301.404660 11  8  9 128       
PG21  12471.011034  10847.840172  21529.173724   -428.052492  8  6  5 100       
PG22  24806.872442   8639.910380  -4296.444126    330.329239 10  7  7 141       
PG23   -845.775610 -26304.043779   -367.213510    -96.219002  9  5  7 113       
PG24  -9132.564871  19369.987661 -15650.818042    -45.261241  7  5  7 112       
PG25  13681.690913  17877.957764 -14313.061282    -12.326628  9  8  8  95       
PG27  12472.747213 -13629.863930  19033.025457     59.051823  7  3  5 131       
PG28 -22775.782515 -13736.501527    -98.387549    427.118392  8  6 10 139       
PG29   4155.782771  25499.534642   6307.907181    598.974408  6  4  7 110       
PG30 -17281.953142  -6079.959855  19240.246818    -78.762149  3  5  6 130       
PG31  23656.690188  -5414.244732 -11054.965574    320.748835 10  8  6 123       
PG32  11582.113814 -10795.815646 -21273.159789   -197.168560  6 11  7 115       
*  2015  3 19 23 30  0.00000000
PG01   8077.961338 -19620.116769 -15913.856639     -7.770982 10  6  7 120       
PG02 -21833.440037  14255.450453  -3133.160862    554.581349 11  7  9 111       
PG03  -1730.881904 -16547.629049 -20686.117346    262.441053 11  9  9 144       
PG04  15822.510482 -19623.126599  -8246.176895     -9.357345  8  8  5 121       
PG05 -17954.830346   6726.088779  18403.205574   -264.723664  9  2  8 129       
PG06 -21222.078753   2002.306200 -15839.043702    113.068188 10  8  7 121       
PG07  -5573.335590 -14270.472188  21760.197897    448.982619  5  7  5  95       
PG08  23840.400800  -9856.548363  -4497.720437     18.678789 11  7  8  76       
PG09  -7663.866150 -24507.444050   6750.586302   -117.116839  9  6  7 104       
PG10 -25017.557874  -9125.950094   2543.808293   -167.807989 11  8 10 140       
PG11   8735.239207 -23961.151664  -7685.710457   -565.474492 11  8  8 134       
PG12  -1686.410450  15160.199260 -21860.820478    277.966017  8  6  9 125       
PG13 -12550.980786  14149.736655  18546.362322    -98.123691  9  6  5 139       
PG14  14203.066954   9685.381547 -20051.710514     77.378362 11  6  7 138       
PG15  -4563.774170  23480.059278  11109.698601   -238.645132  7  5  7 133       
PG16  18210.694250  -4572.671493  18876.500897   -146.581818 10  8  4 142       
PG17 -13867.192339 -11937.316962 -19036.344035   -161.917575 11  8  9 116       
PG18  19329.354129  15938.454497   9755.385043    387.572478  9  7  5 115       
PG19   8956.114408 -20614.512065  13599.260409   -504.496330  8  5  6 130       
PG20 -25636.850869  -5925.859579   3933.244821    301.408445 12  8 10 123       
PG21  10570.765097  12215.288257  21786.540184   -428.055747  8  6  6  96       
PG22  24990.981312   9102.594872  -1553.573972    330.332947 11  7  7 141       
PG23   -506.528700 -26106.398253  -3214.124282    -96.221358  9  6  7  95       
PG24 -10617.191545  20168.004767 -13548.591680    -45.261719  6  5  8 109       
PG25  12057.844572  17258.582245 -16381.228167    -12.329544  9  9  8  92       
PG27  12769.315446 -11394.435509  20274.145002     59.054232  8  3  5 134       
PG28 -22619.415858 -13839.765146   2802.065433    427.120572  8  6 11 139       
PG29   3957.593146  26061.636119   3505.656366    598.976534  7  5  7 106       
PG30 -15375.754465  -7315.279784  20388.432639    -78.759638  4  5  6 128       
PG31  22558.794280  -4521.103895 -13433.065022    320.747885 10  7  6 121       
PG32  13621.082072  -9511.448609 -20620.205321   -197.159803  7 11  7 117       
*  2015  3 19 23 45  0.00000000
PG01   9536.534866 -20514.121877 -13820.776234     -7.770588 10  6  7 131       
PG02 -21622.792799  13626.842479  -5910.553784    554.583375 11  8  9 113       
PG03    533.768636 -15720.775186 -21388.247991    262.455943 11 10  8 142       
PG04  16610.982318 -19861.259574  -5568.771292     -9.358058  8  8  6 135       
PG05 -19778.947878   5843.280590  16783.092324   -264.719115  9     9 122       
PG06 -19821.905286    683.449452 -17661.452679    113.077612 10  8  7 130       
PG07  -3588.749330 -15686.695404  21161.057041    448.985467  6  7  6  78       
PG08  23332.625561  -9319.036118  -7348.672552     18.680282 11  8  7  72       
PG09  -7501.167019 -25155.235440   3989.149003   -117.125487  9  6  7 114       
PG10 -25071.539023  -9447.079200   -245.473858   -167.809920 11  8 11 146       
PG11   9461.981162 -24312.982262  -5097.789082   -565.476971 11  9  8 135       
PG12  -3965.634963  14148.873718 -22222.913848    277.968930  8  7  9 133       
PG13 -12730.884446  11932.246804  19910.543309    -98.127054  9  6  5 127       
PG14  14256.886070  11949.044666 -18779.635887     77.375034 11  7  7 134       
PG15  -5125.966663  22130.308117  13410.239903   -238.647103  7  5  7 131       
PG16  20035.677647  -3620.455942  17197.348483   -146.578792 10  8  4 143       
PG17 -13965.996090 -14072.906294 -17483.677331   -161.919498 11  8  9 123       
PG18  18123.652690  15776.579672  12132.422079    387.574855  9  7  5 114       
PG19   9250.094485 -18905.522471  15734.408892   -504.497472  8  5  6 131       
PG20 -25831.129782  -6344.382843   1173.335661    301.411714 12  8 10 139       
PG21   8731.333608  13683.397279  21691.788999   -428.059209  8  5  7  99       
PG22  24908.646077   9442.347386   1215.811603    330.336859 10  7  6 133       
PG23   -114.623814 -25606.216868  -6004.106178    -96.223863 10  7  7 115       
PG24 -11864.164686  20883.020313 -11212.007639    -45.262137  5  5  8 108       
PG25  10200.016797  16648.756158 -18171.127353    -12.332480  9  9  8  94       
PG27  13200.541381  -9058.912942  21165.281105     59.056673  8  5  6 133       
PG28 -22179.687358 -13806.075689   5654.915787    427.123315  8  6 11 146       
PG29   3762.025905  26314.250819    643.288856    598.978813  8  6  7 108       
PG30 -13443.656859  -8708.350049  21185.915720    -78.757078  5  6  7 126       
PG31  21304.162561  -3415.626623 -15582.075745    320.747158 10  7  6 121       
PG32  15641.291024  -8369.456223 -19609.226227   -197.151029  8 11  8 110       
EOF
